NORAD_CAT_ID,OBJECT_NAME,OBJECT_TYPE,EPOCH,MEAN_MOTION,ECCENTRICITY,INCLINATION,RA_OF_ASC_NODE,ARG_OF_PERICENTER,MEAN_ANOMALY,BSTAR,MEAN_MOTION_DOT,MEAN_MOTION_DDOT,TLE_LINE0,TLE_LINE1,TLE_LINE2,SEMIMAJOR_AXIS,PERIOD,APOGEE,PERIGEE,DECAYED
53735.0,STARLINK-4618,PAYLOAD,2022-10-26 06:00:00,15.0886129,0.0001344,53.2162,27.5795,109.1039,172.8176,0.00025907,3.84e-05,0.0,0 STARLINK-4618,1 53735U 22107AM  22299.25001157  .00003840  00000-0  25907-3 0  9991,2 53735  53.2162  27.5795 0001344 109.1039 172.8176 15.08861290  8059,6917.815,95.436,540.61,538.751,0.0
53735.0,STARLINK-4618,PAYLOAD,2022-10-26 14:00:01,15.08837103,0.0001219,53.2162,26.0849,96.4738,197.0771,0.00029658,4.435e-05,0.0,0 STARLINK-4618,1 53735U 22107AM  22299.58334491  .00004435  00000-0  29658-3 0  9995,2 53735  53.2162  26.0849 0001219  96.4738 197.0771 15.08837103  1305,6917.889,95.438,540.5980000000002,538.911,0.0
53735.0,STARLINK-4618,PAYLOAD,2022-10-26 22:00:00,15.08861164,0.0001125,53.2162,24.5876,101.468,203.6726,-0.0016030999999999,-0.00025725,0.0,0 STARLINK-4618,1 53735U 22107AM  22299.91667824 -.00025725  00000-0 -16031-2 0  9998,2 53735  53.2162  24.5876 0001125 101.4680 203.6726 15.08861164  8155,6917.816,95.436,540.4590000000002,538.9019999999998,0.0
53735.0,STARLINK-4618,PAYLOAD,2022-10-27 14:00:01,15.08831049,0.0001256,53.2162,21.5958,96.0112,232.4181,0.0017327999999999,0.0002739,0.0,0 STARLINK-4618,1 53735U 22107AM  22300.58335648  .00027390  00000-0  17328-2 0  9998,2 53735  53.2162  21.5958 0001256  96.0112 232.4181 15.08831049  1301,6917.908,95.438,540.6419999999998,538.904,0.0
53735.0,STARLINK-4618,PAYLOAD,2022-10-27 22:00:00,15.08876969,0.0001229,53.2159,20.0984,100.3929,239.5658,-0.0040621,-0.00064422,0.0,0 STARLINK-4618,1 53735U 22107AM  22300.91667824 -.00064422  00000-0 -40621-2 0  9990,2 53735  53.2159  20.0984 0001229 100.3929 239.5658 15.08876969  1302,6917.767,95.435,540.4830000000002,538.7819999999998,0.0
53735.0,STARLINK-4618,PAYLOAD,2022-10-28 08:00:01,15.0886011,0.000135,53.216,18.2278,104.2091,340.3230000000001,-0.00077178,-0.00012556,0.0,0 STARLINK-4618,1 53735U 22107AM  22301.33335648 -.00012556  00000-0 -77178-3 0  9992,2 53735  53.2160  18.2278 0001350 104.2091 340.3230 15.08860110  8379,6917.819,95.436,540.618,538.75,0.0
53735.0,STARLINK-4618,PAYLOAD,2022-10-28 14:00:01,15.08851027,0.0001356,53.2159,17.1067,95.7308,267.5107,-0.00097908,-0.00015841,0.0,0 STARLINK-4618,1 53735U 22107AM  22301.58335648 -.00015841  00000-0 -97908-3 0  9992,2 53735  53.2159  17.1067 0001356  95.7308 267.5107 15.08851027  1308,6917.847,95.437,540.65,538.774,0.0
53735.0,STARLINK-4618,PAYLOAD,2022-10-28 22:00:01,15.08853107,0.000133,53.2154,15.6089,101.6055,273.2371,-0.0024151,-0.00038532,0.0,0 STARLINK-4618,1 53735U 22107AM  22301.91668981 -.00038532  00000-0 -24151-2 0  9999,2 53735  53.2154  15.6089 0001330 101.6055 273.2371 15.08853107  1306,6917.84,95.437,540.625,538.785,0.0
53735.0,STARLINK-4618,PAYLOAD,2022-10-29 12:00:00,15.08840179,0.000128,53.2152,12.9913,97.6316,207.4495,0.0012996,0.00020456,0.0,0 STARLINK-4618,1 53735U 22107AM  22302.50001157  .00020456  00000-0  12996-2 0  9999,2 53735  53.2152  12.9913 0001280  97.6316 207.4495 15.08840179  1309,6917.88,95.438,540.63,538.859,0.0
53735.0,STARLINK-4618,PAYLOAD,2022-10-29 22:00:01,15.08839893,0.0001325,53.2174,11.1247,98.9292,310.6463,-0.00033198,-5.567e-05,0.0,0 STARLINK-4618,1 53735U 22107AM  22302.91668981 -.00005567  00000-0 -33198-3 0  9994,2 53735  53.2174  11.1247 0001325  98.9292 310.6463 15.08839893  1304,6917.880999999999,95.438,540.6619999999998,538.8290000000002,0.0
53735.0,STARLINK-4618,PAYLOAD,2022-10-30 00:00:00,15.08836014,0.0001315,53.2174,10.7506,100.19,42.2226,8.353200000000001e-05,1.042e-05,0.0,0 STARLINK-4618,1 53735U 22107AM  22303.00001157  .00001042  00000-0  83532-4 0  9991,2 53735  53.2174  10.7506 0001315 100.1900  42.2226 15.08836014  8627,6917.893,95.438,540.6669999999998,538.8480000000002,0.0
53735.0,STARLINK-4618,PAYLOAD,2022-10-30 14:00:01,15.08822229,0.0001261,53.2149,8.1281,94.1146,338.6325,0.0019462,0.00030806,0.0,0 STARLINK-4618,1 53735U 22107AM  22303.58334491  .00030806  00000-0  19462-2 0  9993,2 53735  53.2149   8.1281 0001261  94.1146 338.6325 15.08822229  1307,6917.935,95.439,540.672,538.927,0.0
53735.0,STARLINK-4618,PAYLOAD,2022-10-30 22:00:01,15.08830372,0.00013,53.2148,6.6299,100.6608,343.7437,-0.00013454,-2.428e-05,0.0,0 STARLINK-4618,1 53735U 22107AM  22303.91668981 -.00002428  00000-0 -13454-3 0  9991,2 53735  53.2148   6.6299 0001300 100.6608 343.7437 15.08830372  1307,6917.91,95.438,540.674,538.875,0.0
53735.0,STARLINK-4618,PAYLOAD,2022-10-31 14:00:01,15.08803255,0.0001262,53.2149,3.6385,90.5353,16.9869,0.0034763,0.00055417,0.0,0 STARLINK-4618,1 53735U 22107AM  22304.58334491  .00055417  00000-0  34763-2 0  9990,2 53735  53.2149   3.6385 0001262  90.5353  16.9869 15.08803255  1300,6917.993,95.44,540.731,538.985,0.0
53735.0,STARLINK-4618,PAYLOAD,2022-10-31 22:00:01,15.08832869,0.0001284,53.215,2.1403,97.3779,21.7897,-0.00054094,-8.885e-05,0.0,0 STARLINK-4618,1 53735U 22107AM  22304.91668981 -.00008885  00000-0 -54094-3 0  9990,2 53735  53.2150   2.1403 0001284  97.3779  21.7897 15.08832869  1306,6917.901999999999,95.438,540.655,538.879,0.0
53735.0,STARLINK-4618,PAYLOAD,2022-11-01 00:00:02,15.08805964,0.0001306,53.2149,1.7659,98.0619,114.0104,0.0030633,0.00048756,0.0,0 STARLINK-4618,1 53735U 22107AM  22305.00002315  .00048756  00000-0  30633-2 0  9995,2 53735  53.2149   1.7659 0001306  98.0619 114.0104 15.08805964  8926,6917.984,95.44,540.753,538.946,0.0
53735.0,STARLINK-4618,PAYLOAD,2022-11-01 14:00:01,15.08837534,0.0001324,53.2153,359.1491,87.1683,55.1189,0.0012851,0.00020222,0.0,0 STARLINK-4618,1 53735U 22107AM  22305.58334491  .00020222  00000-0  12851-2 0  9991,2 53735  53.2153 359.1491 0001324  87.1683  55.1189 15.08837534  9012,6917.888000000001,95.438,540.669,538.837,0.0
53735.0,STARLINK-4618,PAYLOAD,2022-11-01 22:00:00,15.08828594,0.0001199,53.2155,357.651,95.5317,58.3326,0.0015595999999999,0.00024612,0.0,0 STARLINK-4618,1 53735U 22107AM  22305.91667824  .00024612  00000-0  15596-2 0  9993,2 53735  53.2155 357.6510 0001199  95.5317  58.3326 15.08828594  9065,6917.915,95.438,540.61,538.951,0.0
53735.0,STARLINK-4618,PAYLOAD,2022-11-02 14:00:01,15.08842319,0.0001375999999999,53.2165,354.6632,84.5645,92.4972,-0.0025372,-0.00040443,0.0,0 STARLINK-4618,1 53735U 22107AM  22306.58334491 -.00040443  00000-0 -25372-2 0  9993,2 53735  53.2165 354.6632 0001376  84.5645  92.4972 15.08842319  1303,6917.873000000001,95.437,540.69,538.786,0.0
53735.0,STARLINK-4618,PAYLOAD,2022-11-02 22:00:00,15.08814381,0.0001230999999999,53.2159,353.1617,93.0308,95.6244,0.0015099,0.00023807,0.0,0 STARLINK-4618,1 53735U 22107AM  22306.91667824  .00023807  00000-0  15099-2 0  9997,2 53735  53.2159 353.1617 0001231  93.0308  95.6244 15.08814381  1309,6917.959,95.439,540.675,538.972,0.0
53735.0,STARLINK-4618,PAYLOAD,2022-11-03 08:00:01,15.088555599999998,0.0001321,53.2159,351.2921,89.5524,203.583,-9.8051e-05,-1.849e-05,0.0,0 STARLINK-4618,1 53735U 22107AM  22307.33334491 -.00001849  00000-0 -98051-4 0  9990,2 53735  53.2159 351.2921 0001321  89.5524 203.5830 15.08855560  9275,6917.833000000001,95.437,540.612,538.784,0.0
53735.0,STARLINK-4618,PAYLOAD,2022-11-03 14:00:01,15.08850535,0.0001367,53.2159,350.1706,83.4398,128.4098,0.00076676,0.0001194,0.0,0 STARLINK-4618,1 53735U 22107AM  22307.58334491  .00011940  00000-0  76676-3 0  9996,2 53735  53.2159 350.1706 0001367  83.4398 128.4098 15.08850535  1300,6917.848000000001,95.437,540.659,538.768,0.0
53735.0,STARLINK-4618,PAYLOAD,2022-11-03 22:00:00,15.08832266,0.000145,53.216,348.6724,92.5692,130.9019,0.0011308,0.00017751,0.0,0 STARLINK-4618,1 53735U 22107AM  22307.91667824  .00017751  00000-0  11308-2 0  9998,2 53735  53.2160 348.6724 0001450  92.5692 130.9019 15.08832266  1307,6917.904,95.438,540.7719999999998,538.766,0.0
53735.0,STARLINK-4618,PAYLOAD,2022-11-04 14:00:01,15.08860057,0.0001419,53.2166,345.6849,84.5369,162.1199,-0.0083483,-0.00130819,0.0,0 STARLINK-4618,1 53735U 22107AM  22308.58334491 -.00130819  00000-0 -83483-2 0  9999,2 53735  53.2166 345.6849 0001419  84.5369 162.1199 15.08860057  9465,6917.819,95.436,540.6659999999998,538.702,0.0
53735.0,STARLINK-4618,PAYLOAD,2022-11-04 22:00:01,15.08826985,0.0001291999999999,53.2156,344.1831,96.3098,162.0302,-0.0014297,-0.00022961,0.0,0 STARLINK-4618,1 53735U 22107AM  22308.91668981 -.00022961  00000-0 -14297-2 0  9995,2 53735  53.2156 344.1831 0001292  96.3098 162.0302 15.08826985  9511,6917.92,95.438,540.679,538.891,0.0
53735.0,STARLINK-4618,PAYLOAD,2022-11-05 14:00:01,15.08806603,0.0001239,53.2149,341.1922,86.0467,195.4163,0.00036612,5.538e-05,0.0,0 STARLINK-4618,1 53735U 22107AM  22309.58335648  .00005538  00000-0  36612-3 0  9995,2 53735  53.2149 341.1922 0001239  86.0467 195.4163 15.08806603  1307,6917.982,95.44,540.705,538.99,0.0
53735.0,STARLINK-4618,PAYLOAD,2022-11-05 22:00:01,15.08776884,0.0001312,53.2148,339.6941,97.4151,195.6183,0.003529,0.00056227,0.0,0 STARLINK-4618,1 53735U 22107AM  22309.91668981  .00056227  00000-0  35290-2 0  9992,2 53735  53.2148 339.6941 0001312  97.4151 195.6183 15.08776884  9665,6918.073,95.442,540.846,539.031,0.0
53735.0,STARLINK-4618,PAYLOAD,2022-11-06 14:00:01,15.08813417,0.0001312,53.2142,336.7031,86.4747,229.6066,0.0023482,0.00037254,0.0,0 STARLINK-4618,1 53735U 22107AM  22310.58334491  .00037254  00000-0  23482-2 0  9992,2 53735  53.2142 336.7031 0001312  86.4747 229.6066 15.08813417  9769,6917.962,95.439,540.734,538.919,0.0
53735.0,STARLINK-4618,PAYLOAD,2022-11-07 08:00:01,15.08845312,0.0001313,53.2159,333.3358,89.7625,342.4005,-0.0017254,-0.00027646,0.0,0 STARLINK-4618,1 53735U 22107AM  22311.33334491 -.00027646  00000-0 -17254-2 0  9992,2 53735  53.2159 333.3358 0001313  89.7625 342.4005 15.08845312  9883,6917.864000000001,95.437,540.637,538.821,0.0
